[{"OBJECT_NAME":"NUSAT-33 (ALBANIA-2)","OBJECT_ID":"2023-001AQ","EPOCH":"2026-03-09T22:33:27.663264","MEAN_MOTION":15.26923259,"ECCENTRICITY":0.00076854,"INCLINATION":97.3178,"RA_OF_ASC_NODE":131.8399,"ARG_OF_PERICENTER":52.546,"MEAN_ANOMALY":307.6477,"EPHEMERIS_TYPE":0,"CLASSIFICATION_TYPE":"U","NORAD_CAT_ID":55047,"ELEMENT_SET_NO":999,"REV_AT_EPOCH":17716,"BSTAR":0.0004947656,"MEAN_MOTION_DOT":0.00013029,"MEAN_MOTION_DDOT":0},{"OBJECT_NAME":"STARLINK-36124","OBJECT_ID":"2025-299V","EPOCH":"2026-03-09T22:00:01.999584","MEAN_MOTION":15.27574824,"ECCENTRICITY":0.0001908,"INCLINATION":43.0006,"RA_OF_ASC_NODE":167.8374,"ARG_OF_PERICENTER":251.054,"MEAN_ANOMALY":320.2018,"EPHEMERIS_TYPE":0,"CLASSIFICATION_TYPE":"U","NORAD_CAT_ID":67121,"ELEMENT_SET_NO":999,"REV_AT_EPOCH":590,"BSTAR":1.30678e-7,"MEAN_MOTION_DOT":-2.59e-6,"MEAN_MOTION_DDOT":0}]
